#cP2005  4 14 00 00 00.00000000    8638 U+u   IGS00 FIT DEOS
## 1318 345600.00000000    10.00000000 53474 0.0000000000000
+    1   L06  0  0  0  0  0  0  0  0  0  0  0  0  0  0  0  0
+          0  0  0  0  0  0  0  0  0  0  0  0  0  0  0  0  0
+          0  0  0  0  0  0  0  0  0  0  0  0  0  0  0  0  0
+          0  0  0  0  0  0  0  0  0  0  0  0  0  0  0  0  0
+          0  0  0  0  0  0  0  0  0  0  0  0  0  0  0  0  0
++         0  0  0  0  0  0  0  0  0  0  0  0  0  0  0  0  0
++         0  0  0  0  0  0  0  0  0  0  0  0  0  0  0  0  0
++         0  0  0  0  0  0  0  0  0  0  0  0  0  0  0  0  0
++         0  0  0  0  0  0  0  0  0  0  0  0  0  0  0  0  0
++         0  0  0  0  0  0  0  0  0  0  0  0  0  0  0  0  0
%c cc cc ccc ccc cccc cccc cccc cccc ccccc ccccc ccccc ccccc
%c cc cc ccc ccc cccc cccc cccc cccc ccccc ccccc ccccc ccccc
%f   .0000000   .000000000   .00000000000   .000000000000000
%f   .0000000   .000000000   .00000000000   .000000000000000
%i    0    0    0    0      0      0      0      0         0
%i    0    0    0    0      0      0      0      0         0
/* NOTE: CCCCCCCCCCCCCCCCCCCCCCCCCCCCCCCCCCCCCCCCCCCCCCCCCCC
/* CCCCCCCCCCCCCCCCCCCCCCCCCCCCCCCCCCCCCCCCCCCCCCCCCCCCCCCCC
/* CCCCCCCCCCCCCCCCCCCCCCCCCCCCCCCCCCCCCCCCCCCCCCCCCCCCCCCCC
/* CCCCCCCCCCCCCCCCCCCCCCCCCCCCCCCCCCCCCCCCCCCCCCCCCCCCCCCCC
*  2005 04 14 15 30 00.00000000
PL06  -3204.105342   4343.046448  -4043.981139 999999.999999
*  2005 04 14 15 30 10.00000000
PL06  -3231.691627   4379.363991  -3982.310295 999999.999999
*  2005 04 14 15 30 20.00000000
PL06  -3258.807560   4415.155276  -3920.121009 999999.999999
*  2005 04 14 15 30 30.00000000
PL06  -3285.450365   4450.414932  -3857.421323 999999.999999
*  2005 04 14 15 30 40.00000000
PL06  -3311.617334   4485.137651  -3794.219348 999999.999999
*  2005 04 14 15 30 50.00000000
PL06  -3337.305827   4519.318188  -3730.523263 999999.999999
*  2005 04 14 15 31 00.00000000
PL06  -3362.513274   4552.951364  -3666.341311 999999.999999
*  2005 04 14 15 31 10.00000000
PL06  -3387.237171   4586.032065  -3601.681802 999999.999999
*  2005 04 14 15 31 20.00000000
PL06  -3411.475087   4618.555246  -3536.553110 999999.999999
*  2005 04 14 15 31 30.00000000
PL06  -3435.224659   4650.515930  -3470.963673 999999.999999
*  2005 04 14 15 31 40.00000000
PL06  -3458.483594   4681.909206  -3404.921990 999999.999999
*  2005 04 14 15 31 50.00000000
PL06  -3481.249669   4712.730238  -3338.436620 999999.999999
*  2005 04 14 15 32 00.00000000
PL06  -3503.520733   4742.974255  -3271.516184 999999.999999
*  2005 04 14 15 32 10.00000000
PL06  -3525.294703   4772.636560  -3204.169359 999999.999999
*  2005 04 14 15 32 20.00000000
PL06  -3546.569570   4801.712527  -3136.404881 999999.999999
*  2005 04 14 15 32 30.00000000
PL06  -3567.343392   4830.197602  -3068.231542 999999.999999
*  2005 04 14 15 32 40.00000000
PL06  -3587.614302   4858.087306  -2999.658188 999999.999999
*  2005 04 14 15 32 50.00000000
PL06  -3607.380503   4885.377231  -2930.693722 999999.999999
*  2005 04 14 15 33 00.00000000
PL06  -3626.640267   4912.063046  -2861.347097 999999.999999
*  2005 04 14 15 33 10.00000000
PL06  -3645.391942   4938.140496  -2791.627320 999999.999999
*  2005 04 14 15 33 20.00000000
PL06  -3663.633944   4963.605399  -2721.543449 999999.999999
*  2005 04 14 15 33 30.00000000
PL06  -3681.364764   4988.453654  -2651.104589 999999.999999
*  2005 04 14 15 33 40.00000000
PL06  -3698.582963   5012.681236  -2580.319895 999999.999999
*  2005 04 14 15 33 50.00000000
PL06  -3715.287174   5036.284197  -2509.198570 999999.999999
*  2005 04 14 15 34 00.00000000
PL06  -3731.476104   5059.258670  -2437.749860 999999.999999
*  2005 04 14 15 34 10.00000000
PL06  -3747.148531   5081.600865  -2365.983060 999999.999999
*  2005 04 14 15 34 20.00000000
PL06  -3762.303305   5103.307075  -2293.907504 999999.999999
*  2005 04 14 15 34 30.00000000
PL06  -3776.939351   5124.373673  -2221.532572 999999.999999
*  2005 04 14 15 34 40.00000000
PL06  -3791.055663   5144.797112  -2148.867683 999999.999999
*  2005 04 14 15 34 50.00000000
PL06  -3804.651310   5164.573929  -2075.922297 999999.999999
*  2005 04 14 15 35 00.00000000
PL06  -3817.725434   5183.700742  -2002.705912 999999.999999
*  2005 04 14 15 35 10.00000000
PL06  -3830.277247   5202.174255  -1929.228064 999999.999999
*  2005 04 14 15 35 20.00000000
PL06  -3842.306036   5219.991255  -1855.498324 999999.999999
*  2005 04 14 15 35 30.00000000
PL06  -3853.811161   5237.148611  -1781.526300 999999.999999
*  2005 04 14 15 35 40.00000000
PL06  -3864.792053   5253.643282  -1707.321633 999999.999999
*  2005 04 14 15 35 50.00000000
PL06  -3875.248219   5269.472309  -1632.893995 999999.999999
*  2005 04 14 15 36 00.00000000
PL06  -3885.179236   5284.632820  -1558.253089 999999.999999
*  2005 04 14 15 36 10.00000000
PL06  -3894.584754   5299.122032  -1483.408649 999999.999999
*  2005 04 14 15 36 20.00000000
PL06  -3903.464497   5312.937247  -1408.370437 999999.999999
*  2005 04 14 15 36 30.00000000
PL06  -3911.818261   5326.075856  -1333.148242 999999.999999
*  2005 04 14 15 36 40.00000000
PL06  -3919.645915   5338.535337  -1257.751876 999999.999999
*  2005 04 14 15 36 50.00000000
PL06  -3926.947398   5350.313260  -1182.191180 999999.999999
*  2005 04 14 15 37 00.00000000
PL06  -3933.722725   5361.407282  -1106.476013 999999.999999
*  2005 04 14 15 37 10.00000000
PL06  -3939.971979   5371.815149  -1030.616258 999999.999999
*  2005 04 14 15 37 20.00000000
PL06  -3945.695317   5381.534699   -954.621817 999999.999999
*  2005 04 14 15 37 30.00000000
PL06  -3950.892966   5390.563858   -878.502610 999999.999999
*  2005 04 14 15 37 40.00000000
PL06  -3955.565227   5398.900642   -802.268578 999999.999999
*  2005 04 14 15 37 50.00000000
PL06  -3959.712471   5406.543159   -725.929676 999999.999999
*  2005 04 14 15 38 00.00000000
PL06  -3963.335140   5413.489608   -649.495877 999999.999999
*  2005 04 14 15 38 10.00000000
PL06  -3966.433749   5419.738280   -572.977166 999999.999999
*  2005 04 14 15 38 20.00000000
PL06  -3969.008885   5425.287558   -496.383542 999999.999999
*  2005 04 14 15 38 30.00000000
PL06  -3971.061204   5430.135919   -419.725015 999999.999999
*  2005 04 14 15 38 40.00000000
PL06  -3972.591435   5434.281932   -343.011605 999999.999999
*  2005 04 14 15 38 50.00000000
PL06  -3973.600378   5437.724259   -266.253341 999999.999999
*  2005 04 14 15 39 00.00000000
PL06  -3974.088903   5440.461659   -189.460257 999999.999999
*  2005 04 14 15 39 10.00000000
PL06  -3974.057950   5442.492982   -112.642394 999999.999999
*  2005 04 14 15 39 20.00000000
PL06  -3973.508530   5443.817173    -35.809795 999999.999999
*  2005 04 14 15 39 30.00000000
PL06  -3972.441720   5444.433270     41.027493 999999.999999
*  2005 04 14 15 39 40.00000000
PL06  -3970.858670   5444.340408    117.859422 999999.999999
*  2005 04 14 15 39 50.00000000
PL06  -3968.760595   5443.537815    194.675943 999999.999999
*  2005 04 14 15 40 00.00000000
PL06  -3966.148781   5442.024814    271.467006 999999.999999
*  2005 04 14 15 40 10.00000000
PL06  -3963.024579   5439.800824    348.222566 999999.999999
*  2005 04 14 15 40 20.00000000
PL06  -3959.389413   5436.865362    424.932581 999999.999999
*  2005 04 14 15 40 30.00000000
PL06  -3955.244773   5433.218037    501.587013 999999.999999
*  2005 04 14 15 40 40.00000000
PL06  -3950.592216   5428.858557    578.175832 999999.999999
*  2005 04 14 15 40 50.00000000
PL06  -3945.433368   5423.786726    654.689017 999999.999999
*  2005 04 14 15 41 00.00000000
PL06  -3939.769919   5418.002442    731.116555 999999.999999
*  2005 04 14 15 41 10.00000000
PL06  -3933.603630   5411.505700    807.448445 999999.999999
*  2005 04 14 15 41 20.00000000
PL06  -3926.936325   5404.296590    883.674697 999999.999999
*  2005 04 14 15 41 30.00000000
PL06  -3919.769894   5396.375301    959.785335 999999.999999
*  2005 04 14 15 41 40.00000000
PL06  -3912.106292   5387.742117   1035.770396 999999.999999
*  2005 04 14 15 41 50.00000000
PL06  -3903.947543   5378.397418   1111.619934 999999.999999
*  2005 04 14 15 42 00.00000000
PL06  -3895.295732   5368.341683   1187.324022 999999.999999
*  2005 04 14 15 42 10.00000000
PL06  -3886.153010   5357.575487   1262.872749 999999.999999
*  2005 04 14 15 42 20.00000000
PL06  -3876.521592   5346.099500   1338.256227 999999.999999
*  2005 04 14 15 42 30.00000000
PL06  -3866.403756   5333.914492   1413.464590 999999.999999
*  2005 04 14 15 42 40.00000000
PL06  -3855.801843   5321.021327   1488.487993 999999.999999
*  2005 04 14 15 42 50.00000000
PL06  -3844.718255   5307.420966   1563.316617 999999.999999
*  2005 04 14 15 43 00.00000000
PL06  -3833.155459   5293.114466   1637.940669 999999.999999
*  2005 04 14 15 43 10.00000000
PL06  -3821.115981   5278.102983   1712.350382 999999.999999
*  2005 04 14 15 43 20.00000000
PL06  -3808.602407   5262.387765   1786.536018 999999.999999
*  2005 04 14 15 43 30.00000000
PL06  -3795.617386   5245.970160   1860.487867 999999.999999
*  2005 04 14 15 43 40.00000000
PL06  -3782.163625   5228.851609   1934.196251 999999.999999
*  2005 04 14 15 43 50.00000000
PL06  -3768.243891   5211.033652   2007.651524 999999.999999
*  2005 04 14 15 44 00.00000000
PL06  -3753.861010   5192.517924   2080.844073 999999.999999
*  2005 04 14 15 44 10.00000000
PL06  -3739.017866   5173.306155   2153.764319 999999.999999
*  2005 04 14 15 44 20.00000000
PL06  -3723.717402   5153.400171   2226.402721 999999.999999
*  2005 04 14 15 44 30.00000000
PL06  -3707.962617   5132.801895   2298.749774 999999.999999
*  2005 04 14 15 44 40.00000000
PL06  -3691.756569   5111.513343   2370.796012 999999.999999
*  2005 04 14 15 44 50.00000000
PL06  -3675.102370   5089.536628   2442.532008 999999.999999
*  2005 04 14 15 45 00.00000000
PL06  -3658.003189   5066.873956   2513.948379 999999.999999
*  2005 04 14 15 45 10.00000000
PL06  -3640.462248   5043.527629   2585.035781 999999.999999
*  2005 04 14 15 45 20.00000000
PL06  -3622.482826   5019.500043   2655.784916 999999.999999
EOF
